{"signature":{"source":"NASA/JPL Small-Body Database (SBDB) API","version":"1.3"},"object":{"kind":"an","orbit_id":"111","prefix":null,"shortname":"136472 Makemake","neo":false,"orbit_class":{"code":"TNO","name":"TransNeptunian Object"},"pha":false,"spkid":"2136472","fullname":"136472 Makemake (2005 FY9)","des":"136472"},"orbit":{"data_arc":"24833","pe_used":"DE441","cov_epoch":"2457633.5","first_obs":"1955-01-29","two_body":null,"not_valid_after":null,"condition_code":"2","t_jup":"5.202","equinox":"J2000","rms":"0.26","not_valid_before":null,"epoch":"2460000.5","soln_date":"2023-02-08 21:38:43","orbit_id":"111","model_pars":[],"n_del_obs_used":null,"n_obs_used":3675,"comment":null,"elements":[{"label":"e","value":"0.166","name":"e","units":null,"title":"eccentricity","sigma":"3.2e-06"},{"sigma":"0.00019","units":"au","title":"semi-major axis","label":"a","name":"a","value":"45.3"},{"title":"perihelion distance","units":"au","name":"q","value":"37.7","label":"q","sigma":"0.00029"},{"label":"i","name":"i","value":"29","units":"deg","title":"inclination; angle with respect to x-y ecliptic plane","sigma":"6.7e-06"},{"units":"deg","title":"longitude of the ascending node","label":"node","name":"om","value":"79.4","sigma":"8.1e-05"},{"units":"deg","title":"argument of perihelion","label":"peri","name":"w","value":"296","sigma":"0.0019"},{"sigma":"0.0026","title":"mean anomaly","units":"deg","name":"ma","value":"168","label":"M"},{"sigma":"0.73","title":"time of perihelion passage","units":"TDB","name":"tp","value":"2408222.741","label":"tp"},{"title":"sidereal orbital period","units":"d","value":"111000","name":"per","label":"period","sigma":"0.69"},{"name":"n","value":"0.00324","label":"n","title":"mean motion","units":"deg/d","sigma":"2e-08"},{"sigma":"0.00022","label":"Q","name":"ad","value":"52.8","units":"au","title":"aphelion distance"}],"producer":"Otto Matic","sb_used":"SB441-N16","n_dop_obs_used":null,"moid_jup":"33.3","source":"JPL","last_obs":"2023-01-25","moid":"36.8"},"phys_par":[{"desc":"absolute magnitude (magnitude at 1 au from Sun and observer)","value":"-0.20","sigma":null,"notes":null,"title":"absolute magnitude","units":null,"name":"H","ref":"E2022O80"},{"ref":"LCDB (Rev. 2023-February); Warner et al., 2009","name":"rot_per","title":"rotation period","units":"h","notes":"[Result based on less than full coverage, so that the period may be wrong by 30 percent or so.]  REFERENCE LIST:[Hromakina, T.A.; Belskaya, I.N.; Krugly, Yu.N.; Shevchenko, V.G.; et al. (2019) Astron. Astrophys. 625, A46.]","sigma":null,"value":"22.8266","desc":"body rotation period (synodic)"}]}
